NORAD_CAT_ID,OBJECT_NAME,OBJECT_TYPE,EPOCH,MEAN_MOTION,ECCENTRICITY,INCLINATION,RA_OF_ASC_NODE,ARG_OF_PERICENTER,MEAN_ANOMALY,BSTAR,MEAN_MOTION_DOT,MEAN_MOTION_DDOT,TLE_LINE0,TLE_LINE1,TLE_LINE2,SEMIMAJOR_AXIS,PERIOD,APOGEE,PERIGEE,DECAYED
53035.0,STARLINK-4157,PAYLOAD,2022-12-25 05:19:22,15.08858578,0.000223,53.2183,288.5669,39.0927,321.0226,0.0005956,9.208e-05,0.0,0 STARLINK-4157,1 53035U 22076BB  22359.22178795  .00009208  00000-0  59560-3 0  9992,2 53035  53.2183 288.5669 0002230  39.0927 321.0226 15.08858578 26426,6917.824000000001,95.436,541.231,538.146,0.0
53035.0,STARLINK-4157,PAYLOAD,2022-12-26 03:34:46,15.08847865,0.000214,53.2181,284.4031,33.9196,326.1933,0.0001626999999999,2.303e-05,0.0,0 STARLINK-4157,1 53035U 22076BB  22360.14914685  .00002303  00000-0  16270-3 0  9991,2 53035  53.2181 284.4031 0002140  33.9196 326.1933 15.08847865 27028,6917.856,95.437,541.202,538.241,0.0
53035.0,STARLINK-4157,PAYLOAD,2022-12-26 05:10:09,15.08839698,0.000223,53.2179,284.1064,38.6637,321.4514,-9.0749e-05,-1.732e-05,0.0,0 STARLINK-4157,1 53035U 22076BB  22360.21538846 -.00001732  00000-0 -90749-4 0  9991,2 53035  53.2179 284.1064 0002230  38.6637 321.4514 15.08839698 26577,6917.880999999999,95.438,541.289,538.2040000000002,0.0
53035.0,STARLINK-4157,PAYLOAD,2022-12-27 11:22:28,15.08856952,0.0002428,53.2185,278.4569,38.04,322.0763,0.00036364,5.507e-05,0.0,0 STARLINK-4157,1 53035U 22076BB  22361.47394286  .00005507  00000-0  36364-3 0  9992,2 53035  53.2185 278.4569 0002428  38.0400 322.0763 15.08856952 27229,6917.829000000002,95.436,541.373,538.014,0.0
53035.0,STARLINK-4157,PAYLOAD,2022-12-28 04:51:42,15.08857737,0.0002301,53.2183,275.1863,39.3665,320.7494,0.00030059,4.501e-05,0.0,0 STARLINK-4157,1 53035U 22076BB  22362.20257692  .00004501  00000-0  30059-3 0  9991,2 53035  53.2183 275.1863 0002301  39.3665 320.7494 15.08857737 26873,6917.826,95.436,541.283,538.099,0.0
53035.0,STARLINK-4157,PAYLOAD,2022-12-28 20:45:34,15.08835591,9.84e-05,53.2176,272.2075,64.3546,295.7547,-0.00027574,-4.673e-05,0.0,0 STARLINK-4157,1 53035U 22076BB  22362.86497859 -.00004673  00000-0 -27574-3 0  9994,2 53035  53.2176 272.2075 0000984  64.3546 295.7547 15.08835591 27436,6917.894,95.438,540.44,539.078,0.0
53035.0,STARLINK-4157,PAYLOAD,2022-12-29 03:07:07,15.08824212,0.0002431,53.2185,271.019,38.7209,321.3957,-0.00035867,-5.99e-05,0.0,0 STARLINK-4157,1 53035U 22076BB  22363.12994961 -.00005990  00000-0 -35867-3 0  9997,2 53035  53.2185 271.0190 0002431  38.7209 321.3957 15.08824212 27474,6917.929,95.439,541.475,538.112,0.0
53035.0,STARLINK-4157,PAYLOAD,2022-12-29 11:04:04,15.08815057,0.0002266999999999,53.2187,269.5321,40.5815,319.5346,-0.00039211,-6.519e-05,0.0,0 STARLINK-4157,1 53035U 22076BB  22363.46115822 -.00006519  00000-0 -39211-3 0  9990,2 53035  53.2187 269.5321 0002267  40.5815 319.5346 15.08815057 27068,6917.956999999999,95.439,541.39,538.253,0.0
53035.0,STARLINK-4157,PAYLOAD,2022-12-30 02:57:55,15.08833074,0.0002266,53.2175,266.5619,40.2067,319.9093,-4.072799999999999e-06,-3.53e-06,0.0,0 STARLINK-4157,1 53035U 22076BB  22364.12356149 -.00000353  00000-0 -40728-5 0  9990,2 53035  53.2175 266.5619 0002266  40.2067 319.9093 15.08833074 27621,6917.901999999999,95.438,541.3340000000002,538.1990000000002,0.0
53035.0,STARLINK-4157,PAYLOAD,2022-12-30 10:54:51,15.08838746,0.0002045999999999,53.2173,265.0758,43.44600000000001,316.6693,0.00048562,7.449e-05,0.0,0 STARLINK-4157,1 53035U 22076BB  22364.45476317  .00007449  00000-0  48562-3 0  9999,2 53035  53.2173 265.0758 0002046  43.4460 316.6693 15.08838746 27211,6917.884,95.438,541.165,538.3340000000002,0.0
53035.0,STARLINK-4157,PAYLOAD,2022-12-31 02:48:42,15.08866653,0.0002207,53.2168,262.1025,37.8245,322.2902,0.00098241,0.00015393,0.0,0 STARLINK-4157,1 53035U 22076BB  22365.11715903  .00015393  00000-0  98241-3 0  9996,2 53035  53.2168 262.1025 0002207  37.8245 322.2902 15.08866653 27772,6917.799,95.436,541.191,538.137,0.0
53035.0,STARLINK-4157,PAYLOAD,2022-12-31 10:45:38,15.08854484,0.0002498,53.2163,260.6153,41.0905,319.0274,0.00020882,3.038e-05,0.0,0 STARLINK-4157,1 53035U 22076BB  22365.44835835  .00003038  00000-0  20882-3 0  9998,2 53035  53.2163 260.6153 0002498  41.0905 319.0274 15.08854484 27825,6917.8359999999975,95.437,541.429,537.9730000000002,0.0
53035.0,STARLINK-4157,PAYLOAD,2022-12-31 17:07:10,15.08854206,0.0002413,53.2167,259.4253,47.8872,312.2325,0.00036378,5.508e-05,0.0,0 STARLINK-4157,1 53035U 22076BB  22365.71332016  .00005508  00000-0  36378-3 0  9992,2 53035  53.2167 259.4253 0002413  47.8872 312.2325 15.08854206 27408,6917.837,95.437,541.371,538.033,0.0
53035.0,STARLINK-4157,PAYLOAD,2023-01-01 02:39:29,15.08850447,0.0002266999999999,53.2175,257.6419,38.8392,321.2763,0.00056043,8.645e-05,0.0,0 STARLINK-4157,1 53035U 22076BB  23001.11075948  .00008645  00000-0  56043-3 0  9998,2 53035  53.2175 257.6419 0002267  38.8392 321.2763 15.08850447 27921,6917.848000000001,95.437,541.2819999999998,538.145,0.0
53035.0,STARLINK-4157,PAYLOAD,2023-01-01 10:36:25,15.08840101,0.0002234999999999,53.2166,256.1534,44.4544,315.6628,0.00048257,7.4e-05,0.0,0 STARLINK-4157,1 53035U 22076BB  23001.44196439  .00007400  00000-0  48257-3 0  9999,2 53035  53.2166 256.1534 0002235  44.4544 315.6628 15.08840101 27978,6917.88,95.438,541.2909999999998,538.1990000000002,0.0
53035.0,STARLINK-4157,PAYLOAD,2023-01-01 20:08:44,15.08844453,0.0002345,53.2166,254.3714,35.0194,325.0952,0.00062381,9.655e-05,0.0,0 STARLINK-4157,1 53035U 22076BB  23001.83940385  .00009655  00000-0  62381-3 0  9997,2 53035  53.2166 254.3714 0002345  35.0194 325.0952 15.08844453 27572,6917.8669999999975,95.437,541.354,538.11,0.0
53035.0,STARLINK-4157,PAYLOAD,2023-01-02 02:30:16,15.08851115,0.000229,53.2168,253.1816,36.687,323.4279,0.00061741,9.555e-05,0.0,0 STARLINK-4157,1 53035U 22076BB  23002.10436151  .00009555  00000-0  61741-3 0  9997,2 53035  53.2168 253.1816 0002290  36.6870 323.4279 15.08851115 27613,6917.846,95.437,541.2959999999998,538.127,0.0
53035.0,STARLINK-4157,PAYLOAD,2023-01-02 16:48:45,15.08842406,0.0002295,53.2174,250.5051,38.165,321.9504,0.000193,2.785e-05,0.0,0 STARLINK-4157,1 53035U 22076BB  23002.70052336  .00002785  00000-0  19300-3 0  9994,2 53035  53.2174 250.5051 0002295  38.1650 321.9504 15.08842406 27707,6917.873000000001,95.437,541.326,538.15,0.0
53035.0,STARLINK-4157,PAYLOAD,2023-01-02 23:10:18,15.08834218,0.0002315,53.2176,249.3155,40.1112,320.0051,-2.4943e-05,-6.85e-06,0.0,0 STARLINK-4157,1 53035U 22076BB  23002.96548623 -.00000685  00000-0 -24943-4 0  9990,2 53035  53.2176 249.3155 0002315  40.1112 320.0051 15.08834218 28204,6917.898,95.438,541.365,538.1619999999998,0.0
53035.0,STARLINK-4157,PAYLOAD,2023-01-03 08:42:36,15.08840374,0.0002279999999999,53.2178,247.5314,38.629,321.4865,0.00010817,1.434e-05,0.0,0 STARLINK-4157,1 53035U 22076BB  23003.36292548  .00001434  00000-0  10817-3 0  9992,2 53035  53.2178 247.5314 0002280  38.6290 321.4865 15.08840374 27806,6917.879,95.438,541.322,538.1669999999998,0.0
53035.0,STARLINK-4157,PAYLOAD,2023-01-04 08:33:23,15.08843887,0.0002198999999999,53.2182,243.0735,38.9535,321.1615,1.0736e-05,-1.17e-06,0.0,0 STARLINK-4157,1 53035U 22076BB  23004.35652757 -.00000117  00000-0  10736-4 0  9993,2 53035  53.2182 243.0735 0002199  38.9535 321.1615 15.08843887 28413,6917.869000000002,95.437,541.255,538.212,0.0
53035.0,STARLINK-4157,PAYLOAD,2023-01-05 08:24:10,15.08856159,0.0002290999999999,53.2167,238.611,38.7195,321.3961,0.00030566,4.582e-05,0.0,0 STARLINK-4157,1 53035U 22076BB  23005.35011730  .00004582  00000-0  30566-3 0  9995,2 53035  53.2167 238.6110 0002291  38.7195 321.3961 15.08856159 28564,6917.831,95.437,541.281,538.111,0.0
53035.0,STARLINK-4157,PAYLOAD,2023-01-05 16:21:05,15.08855189,0.0002141,53.217,237.1248,42.0269,318.0887,0.0002661,3.951e-05,0.0,0 STARLINK-4157,1 53035U 22076BB  23005.68131568  .00003951  00000-0  26610-3 0  9997,2 53035  53.2170 237.1248 0002141  42.0269 318.0887 15.08855189 28155,6917.834,95.437,541.18,538.2180000000002,0.0
53035.0,STARLINK-4157,PAYLOAD,2023-01-06 08:14:57,15.08841789,0.0002188,53.2166,234.1512,41.68600000000001,318.4298,-6.472e-05,-1.318e-05,0.0,0 STARLINK-4157,1 53035U 22076BB  23006.34371780 -.00001318  00000-0 -64720-4 0  9995,2 53035  53.2166 234.1512 0002188  41.6860 318.4298 15.08841789 28717,6917.875,95.437,541.254,538.226,0.0
53035.0,STARLINK-4157,PAYLOAD,2023-01-06 17:47:15,15.08842592,0.0002352,53.2155,232.3674,39.6895,320.4269,-7.2327e-05,-1.439e-05,0.0,0 STARLINK-4157,1 53035U 22076BB  23006.74115738 -.00001439  00000-0 -72327-4 0  9994,2 53035  53.2155 232.3674 0002352  39.6895 320.4269 15.08842592 28312,6917.871999999999,95.437,541.365,538.11,0.0
53035.0,STARLINK-4157,PAYLOAD,2023-01-07 00:08:48,15.08845965,0.0002459,53.2156,231.1765,41.0423,319.0754,1.7104e-05,-1.6e-07,0.0,0 STARLINK-4157,1 53035U 22076BB  23007.00611603 -.00000016  00000-0  17104-4 0  9997,2 53035  53.2156 231.1765 0002459  41.0423 319.0754 15.08845965 28357,6917.861999999999,95.437,541.428,538.026,0.0
53035.0,STARLINK-4157,PAYLOAD,2023-01-07 09:41:07,15.08837332,0.0002294,53.2147,229.393,38.4222,321.6933,-9.0031e-05,-1.721e-05,0.0,0 STARLINK-4157,1 53035U 22076BB  23007.40355912 -.00001721  00000-0 -90031-4 0  9994,2 53035  53.2147 229.3930 0002294  38.4222 321.6933 15.08837332 28878,6917.889,95.438,541.341,538.1669999999998,0.0
53035.0,STARLINK-4157,PAYLOAD,2023-01-07 20:48:49,15.08838966,0.0002221,53.2164,227.3117,38.2617,321.8533,1.2022e-05,-9.7e-07,0.0,0 STARLINK-4157,1 53035U 22076BB  23007.86724105 -.00000097  00000-0  12022-4 0  9996,2 53035  53.2164 227.3117 0002221  38.2617 321.8533 15.08838966 28487,6917.884,95.438,541.285,538.212,0.0
53035.0,STARLINK-4157,PAYLOAD,2023-01-08 14:18:05,15.08826524,0.0002228,53.2157,224.0415,39.2912,320.8241,-3.954599999999999e-06,-3.51e-06,0.0,0 STARLINK-4157,1 53035U 22076BB  23008.59589233 -.00000351  00000-0 -39546-5 0  9993,2 53035  53.2157 224.0415 0002228  39.2912 320.8241 15.08826524 29056,6917.922,95.438,541.328,538.245,0.0
